NORAD_CAT_ID,OBJECT_NAME,OBJECT_TYPE,EPOCH,MEAN_MOTION,ECCENTRICITY,INCLINATION,RA_OF_ASC_NODE,ARG_OF_PERICENTER,MEAN_ANOMALY,BSTAR,MEAN_MOTION_DOT,MEAN_MOTION_DDOT,TLE_LINE0,TLE_LINE1,TLE_LINE2,SEMIMAJOR_AXIS,PERIOD,APOGEE,PERIGEE,DECAYED
52282.0,STARLINK-3783,PAYLOAD,2024-02-08 22:37:46,15.0884892,0.0001335,53.218,269.7616,103.7002,256.4138,7.3314e-05,8.79e-06,0.0,0 STARLINK-3783,1 52282U 22041X   24039.94290084  .00000879  00000-0  73314-4 0  9998,2 52282  53.2180 269.7616 0001335 103.7002 256.4138 15.08848920 99802,6917.853,95.437,540.642,538.795,0.0
52282.0,STARLINK-3783,PAYLOAD,2024-02-09 14:31:38,15.08833397,0.0001399,53.2166,266.7854,87.351,272.7643,0.00013347,1.837e-05,0.0,0 STARLINK-3783,1 52282U 22041X   24040.60530983  .00001837  00000-0  13347-3 0  9992,2 52282  53.2166 266.7854 0001399  87.3510 272.7643 15.08833397 99903,6917.901,95.438,540.733,538.798,0.0
52282.0,STARLINK-3783,PAYLOAD,2024-02-09 19:17:48,15.08833133,0.0001428,53.2172,265.8939,90.7529,269.3627,0.00010843,1.438e-05,0.0,0 STARLINK-3783,1 52282U 22041X   24040.80403145  .00001438  00000-0  10843-3 0  9998,2 52282  53.2172 265.8939 0001428  90.7529 269.3627 15.08833133101158,6917.901,95.438,540.754,538.779,0.0
52282.0,STARLINK-3783,PAYLOAD,2024-02-10 00:03:57,15.08839616,0.00013,53.2164,265.0,86.2724,273.8417,9.1192e-05,1.164e-05,0.0,0 STARLINK-3783,1 52282U 22041X   24041.00274858  .00001164  00000-0  91192-4 0  9991,2 52282  53.2164 265.0000 0001300  86.2724 273.8417 15.08839616 99960,6917.882,95.438,540.646,538.847,0.0
52282.0,STARLINK-3783,PAYLOAD,2024-02-10 20:43:58,15.08846434,0.0001367,53.2166,261.1357,77.6017,282.5128,6.1629e-06,-1.9e-06,0.0,0 STARLINK-3783,1 52282U 22041X   24041.86386860 -.00000190  00000-0  61629-5 0  9994,2 52282  53.2166 261.1357 0001367  77.6017 282.5128 15.08846434101311,6917.861,95.437,540.671,538.78,0.0
52282.0,STARLINK-3783,PAYLOAD,2024-02-10 22:19:21,15.08848487,0.0001511,53.2173,260.8385,74.9987,285.1172,3.1467e-05,2.13e-06,0.0,0 STARLINK-3783,1 52282U 22041X   24041.93010683  .00000213  00000-0  31467-4 0  9990,2 52282  53.2173 260.8385 0001511  74.9987 285.1172 15.08848487100107,6917.854,95.437,540.765,538.674,0.0
52282.0,STARLINK-3783,PAYLOAD,2024-02-10 23:54:44,15.08851109,0.0001423,53.2169,260.5404,79.038,281.0772,5.2461e-05,5.47e-06,0.0,0 STARLINK-3783,1 52282U 22041X   24041.99634389  .00000547  00000-0  52461-4 0  9998,2 52282  53.2169 260.5404 0001423  79.0380 281.0772 15.08851109100113,6917.846,95.437,540.696,538.727,0.0
52282.0,STARLINK-3783,PAYLOAD,2024-02-11 20:34:45,15.08842705,0.000147,53.2171,256.6709,104.2562,255.8594,2.4083e-05,9.5e-07,0.0,0 STARLINK-3783,1 52282U 22041X   24042.85746778  .00000095  00000-0  24083-4 0  9997,2 52282  53.2171 256.6709 0001470 104.2562 255.8594 15.08842705100242,6917.872,95.437,540.754,538.72,0.0
52282.0,STARLINK-3783,PAYLOAD,2024-02-11 23:45:31,15.08845025,0.0001479,53.2165,256.0756,106.4637,253.6517,4.6855e-05,4.58e-06,0.0,0 STARLINK-3783,1 52282U 22041X   24042.98994513  .00000458  00000-0  46855-4 0  9997,2 52282  53.2165 256.0756 0001479 106.4637 253.6517 15.08845025101483,6917.865,95.437,540.753,538.707,0.0
52282.0,STARLINK-3783,PAYLOAD,2024-02-12 20:25:32,15.08841705,0.0001421,53.2169,252.207,96.1008,264.0146,3.9009e-05,3.33e-06,0.0,0 STARLINK-3783,1 52282U 22041X   24043.85106790  .00000333  00000-0  39009-4 0  9991,2 52282  53.2169 252.2070 0001421  96.1008 264.0146 15.08841705101618,6917.875,95.437,540.723,538.757,0.0
52282.0,STARLINK-3783,PAYLOAD,2024-02-12 23:36:18,15.08839642,0.0001441,53.2169,251.6136,96.1951,263.9206,1.6025e-05,-3.3e-07,0.0,0 STARLINK-3783,1 52282U 22041X   24043.98354922 -.00000033  00000-0  16025-4 0  9998,2 52282  53.2169 251.6136 0001441  96.1951 263.9206 15.08839642100412,6917.881,95.438,540.743,538.75,0.0
52282.0,STARLINK-3783,PAYLOAD,2024-02-13 20:16:19,15.08838185,0.0001387,53.2166,247.7483,91.817,268.2981,1.5618e-05,-3.9e-07,0.0,0 STARLINK-3783,1 52282U 22041X   24044.84467279 -.00000039  00000-0  15618-4 0  9997,2 52282  53.2166 247.7483 0001387  91.8170 268.2981 15.08838185101762,6917.886,95.438,540.71,538.791,0.0
52282.0,STARLINK-3783,PAYLOAD,2024-02-14 13:45:34,15.0883863,0.0001329,53.2162,244.4789,93.9187,266.1958,5.6091e-05,6.05e-06,0.0,0 STARLINK-3783,1 52282U 22041X   24045.57331220  .00000605  00000-0  56091-4 0  9992,2 52282  53.2162 244.4789 0001329  93.9187 266.1958 15.08838630100651,6917.885,95.438,540.669,538.83,0.0
52282.0,STARLINK-3783,PAYLOAD,2024-02-14 20:07:06,15.08841815,0.0001413,53.2172,243.2943,100.6611,259.4541,8.8168e-05,1.116e-05,0.0,0 STARLINK-3783,1 52282U 22041X   24045.83826966  .00001116  00000-0  88168-4 0  9995,2 52282  53.2172 243.2943 0001413 100.6611 259.4541 15.08841815100699,6917.875,95.437,540.717,538.762,0.0
52282.0,STARLINK-3783,PAYLOAD,2024-02-15 05:39:25,15.08840587,0.0001183,53.2157,241.5093,106.7749,253.3373,3.2737e-05,2.33e-06,0.0,0 STARLINK-3783,1 52282U 22041X   24046.23571133  .00000233  00000-0  32737-4 0  9993,2 52282  53.2157 241.5093 0001183 106.7749 253.3373 15.08840587101975,6917.879,95.438,540.562,538.925,0.0
52282.0,STARLINK-3783,PAYLOAD,2024-02-15 19:57:54,15.08834872,0.0001299,53.2163,238.8335,99.7938,260.3201,4.5519e-05,4.37e-06,0.0,0 STARLINK-3783,1 52282U 22041X   24046.83187780  .00000437  00000-0  45519-4 0  9998,2 52282  53.2163 238.8335 0001299  99.7938 260.3201 15.08834872102068,6917.896,95.438,540.66,538.862,0.0
52282.0,STARLINK-3783,PAYLOAD,2024-02-15 21:33:17,15.08837491,0.0001382,53.2169,238.5357,98.3517,261.7632,6.6098e-05,7.64e-06,0.0,0 STARLINK-3783,1 52282U 22041X   24046.89811569  .00000764  00000-0  66098-4 0  9991,2 52282  53.2169 238.5357 0001382  98.3517 261.7632 15.08837491100854,6917.888,95.438,540.709,538.797,0.0
52282.0,STARLINK-3783,PAYLOAD,2024-02-16 05:30:12,15.08838687,0.0001387,53.217,237.049,98.2163,261.8986,6.2443e-05,7.06e-06,0.0,0 STARLINK-3783,1 52282U 22041X   24047.22931551  .00000706  00000-0  62443-4 0  9999,2 52282  53.2170 237.0490 0001387  98.2163 261.8986 15.08838687100906,6917.884,95.438,540.709,538.79,0.0
52282.0,STARLINK-3783,PAYLOAD,2024-02-16 19:48:40,15.08842721,0.0001404,53.2167,234.3724,95.6496,264.4657,3.9355e-05,3.38e-06,0.0,0 STARLINK-3783,1 52282U 22041X   24047.82547359  .00000338  00000-0  39355-4 0  9991,2 52282  53.2167 234.3724 0001404  95.6496 264.4657 15.08842721102216,6917.872,95.437,540.708,538.766,0.0
52282.0,STARLINK-3783,PAYLOAD,2024-02-16 21:24:03,15.08847868,0.0001643,53.2169,234.0749,103.908,256.2095,-1.5345e-05,-5.32e-06,0.0,0 STARLINK-3783,1 52282U 22041X   24047.89171171 -.00000532  00000-0 -15345-4 0  9994,2 52282  53.2169 234.0749 0001643 103.9080 256.2095 15.08847868101007,6917.856,95.437,540.858,538.585,0.0
52282.0,STARLINK-3783,PAYLOAD,2024-02-17 05:21:00,15.08836255,0.0001638,53.2159,232.5851,83.7226,276.3952,5.3434e-05,5.62e-06,0.0,0 STARLINK-3783,1 52282U 22041X   24048.22291831  .00000562  00000-0  53434-4 0  9990,2 52282  53.2159 232.5851 0001638  83.7226 276.3952 15.08836255102277,6917.892,95.438,540.89,538.624,0.0
52282.0,STARLINK-3783,PAYLOAD,2024-02-17 19:39:28,15.08832468,0.0001411,53.2171,229.91,84.4178,275.6975,-2.651e-05,-7.1e-06,0.0,0 STARLINK-3783,1 52282U 22041X   24048.81908521 -.00000710  00000-0 -26510-4 0  9998,2 52282  53.2171 229.9100 0001411  84.4178 275.6975 15.08832468102360,6917.903,95.438,540.745,538.792,0.0
52282.0,STARLINK-3783,PAYLOAD,2024-02-17 21:14:51,15.08834264,0.000147,53.2177,229.6106,83.0046,277.1114,-1.339e-05,-5.01e-06,0.0,0 STARLINK-3783,1 52282U 22041X   24048.88532386 -.00000501  00000-0 -13390-4 0  9997,2 52282  53.2177 229.6106 0001470  83.0046 277.1114 15.08834264101157,6917.898,95.438,540.78,538.746,0.0
52282.0,STARLINK-3783,PAYLOAD,2024-02-18 11:33:19,15.08838504,0.0001437,53.2184,226.9367,84.7945,275.3211,5.5798e-05,6e-06,0.0,0 STARLINK-3783,1 52282U 22041X   24049.48148023  .00000600  00000-0  55798-4 0  9991,2 52282  53.2184 226.9367 0001437  84.7945 275.3211 15.08838504101242,6917.885,95.438,540.744,538.756,0.0
52282.0,STARLINK-3783,PAYLOAD,2024-02-18 17:54:51,15.08845125,0.0001358,53.2171,225.7477,84.6944,275.4204,0.00010648,1.407e-05,0.0,0 STARLINK-3783,1 52282U 22041X   24049.74643349  .00001407  00000-0  10648-3 0  9991,2 52282  53.2171 225.7477 0001358  84.6944 275.4204 15.08845125102507,6917.865,95.437,540.669,538.79,0.0
52282.0,STARLINK-3783,PAYLOAD,2024-02-19 05:02:33,15.08848081,0.0001386,53.2168,223.6662,81.5993,278.5156,3.5645e-06,-2.31e-06,0.0,0 STARLINK-3783,1 52282U 22041X   24050.21011368 -.00000231  00000-0  35645-5 0  9996,2 52282  53.2168 223.6662 0001386  81.5993 278.5156 15.08848081101353,6917.856,95.437,540.68,538.762,0.0
52282.0,STARLINK-3783,PAYLOAD,2024-02-19 17:45:39,15.08837883,0.0001425,53.217,221.2863,90.4989,269.6167,0.00011476,1.539e-05,0.0,0 STARLINK-3783,1 52282U 22041X   24050.74003770  .00001539  00000-0  11476-3 0  9997,2 52282  53.2170 221.2863 0001425  90.4989 269.6167 15.08837883102656,6917.887,95.438,540.738,538.766,0.0
52282.0,STARLINK-3783,PAYLOAD,2024-02-19 20:56:25,15.08841985,0.0001371,53.217,220.6909,93.9652,266.1496,7.2256e-05,8.62e-06,0.0,0 STARLINK-3783,1 52282U 22041X   24050.87251560  .00000862  00000-0  72256-4 0  9995,2 52282  53.2170 220.6909 0001371  93.9652 266.1496 15.08841985101457,6917.874,95.437,540.688,538.791,0.0
52282.0,STARLINK-3783,PAYLOAD,2024-02-20 14:25:39,15.08841964,0.0001328,53.2161,217.4196,93.3463,266.7681,4.7643e-05,4.7e-06,0.0,0 STARLINK-3783,1 52282U 22041X   24051.60115579  .00000470  00000-0  47643-4 0  9993,2 52282  53.2161 217.4196 0001328  93.3463 266.7681 15.08841964101566,6917.874,95.437,540.658,538.821,0.0
52282.0,STARLINK-3783,PAYLOAD,2024-02-20 17:36:25,15.08844949,0.0001301,53.2162,216.8269,87.9561,272.158,3.3075e-05,2.39e-06,0.0,0 STARLINK-3783,1 52282U 22041X   24051.73363419  .00000239  00000-0  33075-4 0  9992,2 52282  53.2162 216.8269 0001301  87.9561 272.1580 15.08844949101587,6917.865,95.437,540.63,538.83,0.0
